start=new Date('2022-08-01T00:00:00.000Z').valueOf();
sats=[{"OBJECT_ID":"2021-018BJ","EPOCH":"2022-07-31T20:16:56.811936","GP_ID":"209296345","CLASSIFICATION_TYPE":"U","ECCENTRICITY":"0.00015470","SEMIMAJOR_AXIS":"6925.388","TLE_LINE2":"2 47843  53.0552  48.1751 0001547  73.3758 286.7401 15.06387075 78065","OBJECT_TYPE":"PAYLOAD","DECAY_DATE":null,"INCLINATION":"53.0552","CENTER_NAME":"EARTH","MEAN_ELEMENT_THEORY":"SGP4","REF_FRAME":"TEME","ARG_OF_PERICENTER":"73.3758","LAUNCH_DATE":"2021-03-11","BSTAR":"0.00001756700000","MEAN_ANOMALY":"286.7401","OBJECT_NAME":"STARLINK-2435","EPHEMERIS_TYPE":"0","RA_OF_ASC_NODE":"48.1751","MEAN_MOTION_DOT":"-0.00000020","MEAN_MOTION_DDOT":"0.0000000000000","MEAN_MOTION":"15.06387075","TIME_SYSTEM":"UTC","PERIOD":"95.593","APOAPSIS":"548.325","SITE":"AFETR","NORAD_CAT_ID":"47843","REV_AT_EPOCH":"7806","FILE":"3526413","COUNTRY_CODE":"US","RCS_SIZE":"LARGE","TLE_LINE1":"1 47843U 21018BJ  22212.84510199 -.00000020  00000-0  17567-4 0  9997","ELEMENT_SET_NO":"999","PERIAPSIS":"546.182"},{"ELEMENT_SET_NO":"999","PERIAPSIS":"546.236","FILE":"3526169","COUNTRY_CODE":"US","RCS_SIZE":"LARGE","TLE_LINE1":"1 47844U 21018BK  22212.24658124 -.00000115  00000-0  11162-4 0  9993","REV_AT_EPOCH":"7802","TIME_SYSTEM":"UTC","PERIOD":"95.593","APOAPSIS":"548.229","SITE":"AFETR","NORAD_CAT_ID":"47844","MEAN_MOTION_DDOT":"0.0000000000000","MEAN_MOTION":"15.06393696","MEAN_MOTION_DOT":"-0.00000115","LAUNCH_DATE":"2021-03-11","BSTAR":"0.00001116200000","MEAN_ANOMALY":"277.7063","OBJECT_NAME":"STARLINK-2446","EPHEMERIS_TYPE":"0","RA_OF_ASC_NODE":"45.8614","MEAN_ELEMENT_THEORY":"SGP4","REF_FRAME":"TEME","ARG_OF_PERICENTER":"82.4090","DECAY_DATE":null,"INCLINATION":"53.0554","CENTER_NAME":"EARTH","OBJECT_TYPE":"PAYLOAD","ECCENTRICITY":"0.00014390","SEMIMAJOR_AXIS":"6925.368","TLE_LINE2":"2 47844  53.0554  45.8614 0001439  82.4090 277.7063 15.06393696 78026","GP_ID":"209264535","CLASSIFICATION_TYPE":"U","EPOCH":"2022-07-31T05:55:04.619136","OBJECT_ID":"2021-018BK"},{"BSTAR":"0.00000797210000","LAUNCH_DATE":"2021-03-11","MEAN_ANOMALY":"273.5854","OBJECT_NAME":"STARLINK-2453","RA_OF_ASC_NODE":"43.9869","EPHEMERIS_TYPE":"0","MEAN_MOTION_DOT":"-0.00000163","MEAN_MOTION_DDOT":"0.0000000000000","MEAN_MOTION":"15.06391629","TIME_SYSTEM":"UTC","PERIOD":"95.593","APOAPSIS":"548.275","SITE":"AFETR","NORAD_CAT_ID":"47845","REV_AT_EPOCH":"7809","FILE":"3526413","RCS_SIZE":"LARGE","COUNTRY_CODE":"US","TLE_LINE1":"1 47845U 21018BL  22212.66309219 -.00000163  00000-0  79721-5 0  9997","ELEMENT_SET_NO":"999","PERIAPSIS":"546.204","OBJECT_ID":"2021-018BL","EPOCH":"2022-07-31T15:54:51.165216","GP_ID":"209294849","CLASSIFICATION_TYPE":"U","ECCENTRICITY":"0.00014950","SEMIMAJOR_AXIS":"6925.374","TLE_LINE2":"2 47845  53.0543  43.9869 0001495  86.5306 273.5854 15.06391629 78096","OBJECT_TYPE":"PAYLOAD","DECAY_DATE":null,"INCLINATION":"53.0543","CENTER_NAME":"EARTH","MEAN_ELEMENT_THEORY":"SGP4","REF_FRAME":"TEME","ARG_OF_PERICENTER":"86.5306"},{"OBJECT_TYPE":"PAYLOAD","INCLINATION":"53.0561","CENTER_NAME":"EARTH","DECAY_DATE":null,"ARG_OF_PERICENTER":"82.6398","MEAN_ELEMENT_THEORY":"SGP4","REF_FRAME":"TEME","OBJECT_ID":"2021-018BM","GP_ID":"209296099","EPOCH":"2022-07-31T18:59:15.854208","CLASSIFICATION_TYPE":"U","SEMIMAJOR_AXIS":"6925.371","TLE_LINE2":"2 47846  53.0561  43.4027 0001453  82.6398 277.4756 15.06392830 78167","ECCENTRICITY":"0.00014530","SITE":"AFETR","APOAPSIS":"548.242","NORAD_CAT_ID":"47846","TIME_SYSTEM":"UTC","PERIOD":"95.593","REV_AT_EPOCH":"7816","TLE_LINE1":"1 47846U 21018BM  22212.79115572 -.00000189  00000-0  62191-5 0  9990","FILE":"3526413","COUNTRY_CODE":"US","RCS_SIZE":"LARGE","PERIAPSIS":"546.229","ELEMENT_SET_NO":"999","EPHEMERIS_TYPE":"0","RA_OF_ASC_NODE":"43.4027","BSTAR":"0.00000621910000","LAUNCH_DATE":"2021-03-11","OBJECT_NAME":"STARLINK-2456","MEAN_ANOMALY":"277.4756","MEAN_MOTION_DOT":"-0.00000189","MEAN_MOTION":"15.06392830","MEAN_MOTION_DDOT":"0.0000000000000"},{"MEAN_MOTION":"15.06396418","MEAN_MOTION_DDOT":"0.0000000000000","RA_OF_ASC_NODE":"73.3775","EPHEMERIS_TYPE":"0","BSTAR":"0.00008000700000","LAUNCH_DATE":"2021-03-14","OBJECT_NAME":"STARLINK-2258","MEAN_ANOMALY":"259.9870","MEAN_MOTION_DOT":"0.00000910","TLE_LINE1":"1 47860U 21021A   22212.79670631  .00000910  00000-0  80007-4 0  9998","FILE":"3526413","COUNTRY_CODE":"US","RCS_SIZE":"LARGE","PERIAPSIS":"546.231","ELEMENT_SET_NO":"999","APOAPSIS":"548.218","SITE":"AFETR","NORAD_CAT_ID":"47860","TIME_SYSTEM":"UTC","PERIOD":"95.592","REV_AT_EPOCH":"7746","TLE_LINE2":"2 47860  53.0539  73.3775 0001435 100.1280 259.9870 15.06396418 77466","SEMIMAJOR_AXIS":"6925.360","ECCENTRICITY":"0.00014350","OBJECT_ID":"2021-021A","EPOCH":"2022-07-31T19:07:15.425184","GP_ID":"209295100","CLASSIFICATION_TYPE":"U","INCLINATION":"53.0539","CENTER_NAME":"EARTH","DECAY_DATE":null,"ARG_OF_PERICENTER":"100.1280","MEAN_ELEMENT_THEORY":"SGP4","REF_FRAME":"TEME","OBJECT_TYPE":"PAYLOAD"},{"MEAN_ELEMENT_THEORY":"SGP4","REF_FRAME":"TEME","ARG_OF_PERICENTER":"78.8387","DECAY_DATE":null,"INCLINATION":"53.0540","CENTER_NAME":"EARTH","OBJECT_TYPE":"PAYLOAD","ECCENTRICITY":"0.00014880","TLE_LINE2":"2 47861  53.0540  58.8914 0001488  78.8387 281.2769 15.06390863 77765","SEMIMAJOR_AXIS":"6925.377","GP_ID":"209295350","EPOCH":"2022-07-31T16:22:03.707040","CLASSIFICATION_TYPE":"U","OBJECT_ID":"2021-021B","ELEMENT_SET_NO":"999","PERIAPSIS":"546.211","FILE":"3526413","COUNTRY_CODE":"US","RCS_SIZE":"LARGE","TLE_LINE1":"1 47861U 21021B   22212.68198735  .00000397  00000-0  45536-4 0  9994","REV_AT_EPOCH":"7776","TIME_SYSTEM":"UTC","PERIOD":"95.593","APOAPSIS":"548.272","SITE":"AFETR","NORAD_CAT_ID":"47861","MEAN_MOTION_DDOT":"0.0000000000000","MEAN_MOTION":"15.06390863","MEAN_MOTION_DOT":"0.00000397","BSTAR":"0.00004553600000","LAUNCH_DATE":"2021-03-14","OBJECT_NAME":"STARLINK-2280","MEAN_ANOMALY":"281.2769","EPHEMERIS_TYPE":"0","RA_OF_ASC_NODE":"58.8914"},{"SEMIMAJOR_AXIS":"6925.374","TLE_LINE2":"2 47862  53.0553  53.1039 0001399  85.1002 275.0147 15.06391710 77855","ECCENTRICITY":"0.00013990","OBJECT_ID":"2021-021C","GP_ID":"209295601","CLASSIFICATION_TYPE":"U","EPOCH":"2022-07-31T20:40:09.072768","INCLINATION":"53.0553","CENTER_NAME":"EARTH","DECAY_DATE":null,"ARG_OF_PERICENTER":"85.1002","MEAN_ELEMENT_THEORY":"SGP4","REF_FRAME":"TEME","OBJECT_TYPE":"PAYLOAD","MEAN_MOTION":"15.06391710","MEAN_MOTION_DDOT":"0.0000000000000","RA_OF_ASC_NODE":"53.1039","EPHEMERIS_TYPE":"0","LAUNCH_DATE":"2021-03-14","BSTAR":"0.00001072200000","OBJECT_NAME":"STARLINK-2291","MEAN_ANOMALY":"275.0147","MEAN_MOTION_DOT":"-0.00000122","TLE_LINE1":"1 47862U 21021C   22212.86121612 -.00000122  00000-0  10722-4 0  9991","FILE":"3526413","RCS_SIZE":"LARGE","COUNTRY_CODE":"US","PERIAPSIS":"546.270","ELEMENT_SET_NO":"999","SITE":"AFETR","APOAPSIS":"548.208","NORAD_CAT_ID":"47862","TIME_SYSTEM":"UTC","PERIOD":"95.593","REV_AT_EPOCH":"7785"},{"PERIAPSIS":"546.231","ELEMENT_SET_NO":"999","TLE_LINE1":"1 47863U 21021D   22212.88608675  .00000384  00000-0  44656-4 0  9995","COUNTRY_CODE":"US","RCS_SIZE":"LARGE","FILE":"3526413","REV_AT_EPOCH":"7772","NORAD_CAT_ID":"47863","APOAPSIS":"548.194","SITE":"AFETR","PERIOD":"95.592","TIME_SYSTEM":"UTC","MEAN_MOTION":"15.06400334","MEAN_MOTION_DDOT":"0.0000000000000","MEAN_MOTION_DOT":"0.00000384","EPHEMERIS_TYPE":"0","RA_OF_ASC_NODE":"62.9952","MEAN_ANOMALY":"276.3528","OBJECT_NAME":"STARLINK-2293","BSTAR":"0.00004465600000","LAUNCH_DATE":"2021-03-14","ARG_OF_PERICENTER":"83.7622","REF_FRAME":"TEME","MEAN_ELEMENT_THEORY":"SGP4","CENTER_NAME":"EARTH","INCLINATION":"53.0551","DECAY_DATE":null,"OBJECT_TYPE":"PAYLOAD","SEMIMAJOR_AXIS":"6925.348","TLE_LINE2":"2 47863  53.0551  62.9952 0001417  83.7622 276.3528 15.06400334 77725","ECCENTRICITY":"0.00014170","GP_ID":"209296347","CLASSIFICATION_TYPE":"U","EPOCH":"2022-07-31T21:15:57.895200","OBJECT_ID":"2021-021D"},{"EPOCH":"2022-07-31T20:45:27.994176","GP_ID":"209294601","CLASSIFICATION_TYPE":"U","OBJECT_ID":"2021-021E","TLE_LINE2":"2 47864  53.0552  53.1260 0001462  82.4338 277.6817 15.06392641 77839","SEMIMAJOR_AXIS":"6925.371","ECCENTRICITY":"0.00014620","OBJECT_TYPE":"PAYLOAD","ARG_OF_PERICENTER":"82.4338","REF_FRAME":"TEME","MEAN_ELEMENT_THEORY":"SGP4","CENTER_NAME":"EARTH","INCLINATION":"53.0552","DECAY_DATE":null,"MEAN_MOTION_DOT":"0.00000449","EPHEMERIS_TYPE":"0","RA_OF_ASC_NODE":"53.1260","OBJECT_NAME":"STARLINK-2304","MEAN_ANOMALY":"277.6817","LAUNCH_DATE":"2021-03-14","BSTAR":"0.00004903900000","MEAN_MOTION":"15.06392641","MEAN_MOTION_DDOT":"0.0000000000000","REV_AT_EPOCH":"7783","NORAD_CAT_ID":"47864","APOAPSIS":"548.249","SITE":"AFETR","PERIOD":"95.593","TIME_SYSTEM":"UTC","PERIAPSIS":"546.224","ELEMENT_SET_NO":"999","TLE_LINE1":"1 47864U 21021E   22212.86490734  .00000449  00000-0  49039-4 0  9991","COUNTRY_CODE":"US","RCS_SIZE":"LARGE","FILE":"3526413"},{"TLE_LINE1":"1 47865U 21021F   22212.72664842  .00000248  00000-0  35541-4 0  9990","COUNTRY_CODE":"US","RCS_SIZE":"LARGE","FILE":"3526413","PERIAPSIS":"546.290","ELEMENT_SET_NO":"999","NORAD_CAT_ID":"47865","SITE":"AFETR","APOAPSIS":"548.151","PERIOD":"95.592","TIME_SYSTEM":"UTC","REV_AT_EPOCH":"7780","MEAN_MOTION":"15.06397735","MEAN_MOTION_DDOT":"0.0000000000000","RA_OF_ASC_NODE":"63.6889","EPHEMERIS_TYPE":"0","MEAN_ANOMALY":"275.2143","OBJECT_NAME":"STARLINK-2310","BSTAR":"0.00003554100000","LAUNCH_DATE":"2021-03-14","MEAN_MOTION_DOT":"0.00000248","CENTER_NAME":"EARTH","INCLINATION":"53.0563","DECAY_DATE":null,"ARG_OF_PERICENTER":"84.8999","REF_FRAME":"TEME","MEAN_ELEMENT_THEORY":"SGP4","OBJECT_TYPE":"PAYLOAD","SEMIMAJOR_AXIS":"6925.355","TLE_LINE2":"2 47865  53.0563  63.6889 0001343  84.8999 275.2143 15.06397735 77804","ECCENTRICITY":"0.00013430","OBJECT_ID":"2021-021F","EPOCH":"2022-07-31T17:26:22.423488","GP_ID":"209294851","CLASSIFICATION_TYPE":"U"}];
